STARLINK-30998          
1 58513U 23191F   26068.45569161  .00008137  00000+0  31234-3 0  9991
2 58513  43.0003 104.9154 0001083 269.4650  90.6078 15.26777394125461
FLOCK 4G-15             
1 62678U 25009BX  26068.71779869  .00012647  00000+0  47575-3 0  9991
2 62678  97.4054 151.1927 0003699 316.8208  43.2740 15.27266411121358
